TANSAT                  
1 41898U 16081A   26178.94002288  .00000348  00000+0  83079-4 0  9998
2 41898  98.5361 179.5153 0019136 276.9438  82.9584 14.59959380506194
JILIN-1 03              
1 41914U 17002B   26178.93011062  .00012585  00000+0  29848-3 0  9999
2 41914  97.1942 185.8641 0007756 124.5814 235.6166 15.41830593523510
CARTOSAT-2D             
1 41948U 17008A   26178.96017771  .00003378  00000+0  16332-3 0  9992
2 41948  97.4112 238.0643 0004835 189.7139 170.4003 15.19284966519210
CARTOSAT-2E             
1 42767U 17036C   26178.97788928  .00004006  00000+0  19333-3 0  9996
2 42767  97.4278 238.6022 0002309 263.7157  96.3814 15.19245259499784
IRIDIUM 113             
1 42803U 17039A   26178.84517529  .00000008  00000+0 -41844-5 0  9996
2 42803  86.3981 317.7230 0002236  89.9065 270.2387 14.34217693472717
NORSAT 2                
1 42828U 17042D   26178.94121670  .00010132  00000+0  44436-3 0  9992
2 42828  97.4037 352.2125 0009672  22.0456 338.1194 15.22126852489373
TECHNOSAT               
1 42829U 17042E   26178.88725664  .00002757  00000+0  19762-3 0  9997
2 42829  97.4291 336.1391 0019185  60.9924 299.3223 15.05023001488310
FLYING LAPTOP           
1 42831U 17042G   26178.91718167  .00004788  00000+0  37589-3 0  9997
2 42831  97.4727 334.0401 0019976  87.2955 273.0556 15.01214941488061
WNISAT 1R               
1 42835U 17042L   26178.88588502  .00002208  00000+0  17358-3 0  9992
2 42835  97.4832 334.6259 0012003 115.2181 245.0290 15.01805134488116
LEMUR-2-GREENBERG       
1 42837U 17042N   26178.73724055  .00015731  00000+0  51648-3 0  9998
2 42837  97.3815 359.3154 0007555 333.6954  26.3903 15.31642779490005
LEMUR-2-FURIAUS         
1 42840U 17042R   26178.73838365  .00017005  00000+0  57648-3 0  9994
2 42840  97.3764 357.2479 0007438  35.0260 325.1469 15.30589303489829
CORVUS BC2              
1 42846U 17042X   26178.69057003  .00002608  00000+0  18086-3 0  9993
2 42846  97.4068 339.6328 0014617  78.2935 281.9932 15.06358816488644
CORVUS BC1              
1 42847U 17042Y   26178.68402011  .00002834  00000+0  19546-3 0  9999
2 42847  97.4094 340.4473 0012982  57.0269 303.2205 15.06521528488679
VRSS-2                  
1 42954U 17060A   26178.92821741  .00001154  00000+0  15425-3 0  9996
2 42954  97.6512 216.1710 0018572  66.9190 293.3979 14.81211862470049
MOHAMMED VI-A           
1 43005U 17070A   26178.98195821  .00000904  00000+0  13516-3 0  9995
2 43005  97.9561 251.1643 0001227  77.9149 282.2199 14.77083420465578
FENGYUN 3D              
1 43010U 17072A   26178.92999505 -.00000099  00000+0 -25042-4 0  9993
2 43010  99.0124 153.5464 0002265  46.1210 314.0152 14.19740774446512
NOAA 20 (JPSS-1)        
1 43013U 17073A   26178.92671615  .00000046  00000+0  42888-4 0  9993
2 43013  98.7773 118.2939 0000671 134.3443 225.7789 14.19513600445994
MAKERSAT 0              
1 43016U 17073D   26178.17177366  .00018824  00000+0  50687-3 0  9995
2 43016  97.4619  60.7702 0104795 236.8226 122.2932 15.32414292467998
RADFXSAT (FOX-1B)       
1 43017U 17073E   26178.85723935  .00006776  00000+0  29695-3 0  9998
2 43017  97.4692  45.8542 0148575 292.0285  66.5220 15.12857396467005
JILIN-1 04              
1 43022U 17074A   26178.91937711  .00013846  00000+0  31891-3 0  9998
2 43022  97.4868 288.8195 0004843 146.2099 213.9458 15.42717683475929
JILIN-1 05              
1 43023U 17074B   26178.94990695  .00007928  00000+0  24309-3 0  9992
2 43023  97.4874 285.2504 0005331 175.4185 184.7107 15.34038812475652
JILIN-1 06              
1 43024U 17074C   26178.92290927  .00006508  00000+0  20135-3 0  9998
2 43024  97.4801 282.2189 0006646 189.3473 170.7647 15.33817992475481
IRIDIUM 116             
1 43072U 17083C   26178.88957359  .00000054  00000+0  12257-4 0  9992
2 43072  86.3973 317.5263 0002187 101.6412 258.5029 14.34217839445707
IRIDIUM 130             
1 43073U 17083D   26178.85785929  .00000083  00000+0  22456-4 0  9996
2 43073  86.3980 317.8158 0002014  97.0054 263.1371 14.34217348445641
LKW-2                   
1 43080U 17084A   26178.91079266  .00005769  00000+0  22379-3 0  9991
2 43080  97.1192 218.2052 0002335 152.7800 207.3562 15.26474908473322
SUPERVIEW-1 03          
1 43099U 18002A   26178.95607133  .00020156  00000+0  49287-3 0  9990
2 43099  97.3140 263.7785 0047520 141.4446 219.0210 15.39636010470023
CARTOSAT-2F             
1 43111U 18004A   26178.94426763  .00003468  00000+0  16760-3 0  9991
2 43111  97.4793 238.4738 0001868 162.5800 197.5499 15.19294412468966
LKW-3                   
1 43146U 18006A   26178.93790867  .00010522  00000+0  30788-3 0  9994
2 43146  97.6609 339.9336 0001719 263.2537  96.8510 15.35449847470368
