OBJECT_NAME,OBJECT_ID,EPOCH,MEAN_MOTION,ECCENTRICITY,INCLINATION,RA_OF_ASC_NODE,ARG_OF_PERICENTER,MEAN_ANOMALY,EPHEMERIS_TYPE,CLASSIFICATION_TYPE,NORAD_CAT_ID,ELEMENT_SET_NO,REV_AT_EPOCH,BSTAR,MEAN_MOTION_DOT,MEAN_MOTION_DDOT
TANSAT,2016-081A,2026-06-27T22:33:37.976832,14.59959380,.00191367,98.5361,179.5153,276.9438,82.9584,0,U,41898,999,50619,.83079406E-4,.348E-5,0
JILIN-1 03,2017-002B,2026-06-27T22:19:21.557568,15.41830593,.00077567,97.1942,185.8641,124.5814,235.6166,0,U,41914,999,52351,.29847653E-3,.12585E-3,0
CARTOSAT-2D,2017-008A,2026-06-27T23:02:39.354144,15.19284966,.00048353,97.4112,238.0643,189.7139,170.4003,0,U,41948,999,51921,.16332158E-3,.3378E-4,0
CARTOSAT-2E,2017-036C,2026-06-27T23:28:09.633792,15.19245259,.00023098,97.4278,238.6022,263.7157,96.3814,0,U,42767,999,49978,.19332883E-3,.4006E-4,0
IRIDIUM 113,2017-039A,2026-06-27T20:17:03.145056,14.34217693,.00022363,86.3981,317.7230,89.9065,270.2387,0,U,42803,999,47271,-.4184392E-5,.8E-7,0
NORSAT 2,2017-042D,2026-06-27T22:35:21.122880,15.22126852,.0009672,97.4037,352.2125,22.0456,338.1194,0,U,42828,999,48937,.44436358E-3,.10132E-3,0
TECHNOSAT,2017-042E,2026-06-27T21:17:38.973696,15.05023001,.00191857,97.4291,336.1391,60.9924,299.3223,0,U,42829,999,48831,.19762032E-3,.2757E-4,0
FLYING LAPTOP,2017-042G,2026-06-27T22:00:44.496288,15.01214941,.00199761,97.4727,334.0401,87.2955,273.0556,0,U,42831,999,48806,.3758917E-3,.4788E-4,0
WNISAT 1R,2017-042L,2026-06-27T21:15:40.465728,15.01805134,.00120036,97.4832,334.6259,115.2181,245.0290,0,U,42835,999,48811,.1735786E-3,.2208E-4,0
LEMUR-2-GREENBERG,2017-042N,2026-06-27T17:41:37.583520,15.31642779,.00075553,97.3815,359.3154,333.6954,26.3903,0,U,42837,999,49000,.51647887E-3,.15731E-3,0
LEMUR-2-FURIAUS,2017-042R,2026-06-27T17:43:16.347360,15.30589303,.00074382,97.3764,357.2479,35.0260,325.1469,0,U,42840,999,48982,.57648429E-3,.17005E-3,0
CORVUS BC2,2017-042X,2026-06-27T16:34:25.250592,15.06358816,.0014617,97.4068,339.6328,78.2935,281.9932,0,U,42846,999,48864,.18085881E-3,.2608E-4,0
CORVUS BC1,2017-042Y,2026-06-27T16:24:59.337504,15.06521528,.00129829,97.4094,340.4473,57.0269,303.2205,0,U,42847,999,48867,.1954586E-3,.2834E-4,0
VRSS-2,2017-060A,2026-06-27T22:16:37.984224,14.81211862,.00185724,97.6512,216.1710,66.9190,293.3979,0,U,42954,999,47004,.1542528E-3,.1154E-4,0
MOHAMMED VI-A,2017-070A,2026-06-27T23:34:01.189344,14.77083420,.00012272,97.9561,251.1643,77.9149,282.2199,0,U,43005,999,46557,.13515664E-3,.904E-5,0
FENGYUN 3D,2017-072A,2026-06-27T22:19:11.572320,14.19740774,.00022659,99.0124,153.5464,46.1210,314.0152,0,U,43010,999,44651,-.2504187E-4,-.99E-6,0
NOAA 20 (JPSS-1),2017-073A,2026-06-27T22:14:28.275360,14.19513600,.00006716,98.7773,118.2939,134.3443,225.7789,0,U,43013,999,44599,.42887692E-4,.46E-6,0
MAKERSAT 0,2017-073D,2026-06-27T04:07:21.244224,15.32414292,.01047959,97.4619,60.7702,236.8226,122.2932,0,U,43016,999,46799,.50687114E-3,.18824E-3,0
RADFXSAT (FOX-1B),2017-073E,2026-06-27T20:34:25.479840,15.12857396,.01485752,97.4692,45.8542,292.0285,66.5220,0,U,43017,999,46700,.29695417E-3,.6776E-4,0
JILIN-1 04,2017-074A,2026-06-27T22:03:54.182304,15.42717683,.00048437,97.4868,288.8195,146.2099,213.9458,0,U,43022,999,47592,.31890885E-3,.13846E-3,0
JILIN-1 05,2017-074B,2026-06-27T22:47:51.960480,15.34038812,.0005331,97.4874,285.2504,175.4185,184.7107,0,U,43023,999,47565,.24309414E-3,.7928E-4,0
JILIN-1 06,2017-074C,2026-06-27T22:08:59.360928,15.33817992,.00066469,97.4801,282.2189,189.3473,170.7647,0,U,43024,999,47548,.2013526E-3,.6508E-4,0
IRIDIUM 116,2017-083C,2026-06-27T21:20:59.158176,14.34217839,.00021871,86.3973,317.5263,101.6412,258.5029,0,U,43072,999,44570,.12257371E-4,.54E-6,0
IRIDIUM 130,2017-083D,2026-06-27T20:35:19.042656,14.34217348,.00020141,86.3980,317.8158,97.0054,263.1371,0,U,43073,999,44564,.22455531E-4,.83E-6,0
LKW-2,2017-084A,2026-06-27T21:51:32.485824,15.26474908,.00023355,97.1192,218.2052,152.7800,207.3562,0,U,43080,999,47332,.22379178E-3,.5769E-4,0
SUPERVIEW-1 03,2018-002A,2026-06-27T22:56:44.562912,15.39636010,.00475205,97.3140,263.7785,141.4446,219.0210,0,U,43099,999,47002,.49287089E-3,.20156E-3,0
CARTOSAT-2F,2018-004A,2026-06-27T22:39:44.723232,15.19294412,.00018688,97.4793,238.4738,162.5800,197.5499,0,U,43111,999,46896,.16759705E-3,.3468E-4,0
LKW-3,2018-006A,2026-06-27T22:30:35.309088,15.35449847,.00017196,97.6609,339.9336,263.2537,96.8510,0,U,43146,999,47036,.30787772E-3,.10522E-3,0
